QIANFAN-57              
1 62787U 25016C   25316.90315100  .00000175  00000+0  25315-3 0  9991
2 62787  88.9759 106.2765 0001140 123.1109 237.0152 13.50978971 43173
QIANFAN-58              
1 62788U 25016D   25316.87433138  .00000166  00000+0  23785-3 0  9999
2 62788  88.9728 106.1204 0015364  72.5436 287.7393 13.50978711 43216
QIANFAN-59              
1 62789U 25016E   25316.89901810  .00000173  00000+0  24844-3 0  9994
2 62789  88.9752 106.1844 0015789  75.8349 284.4555 13.50978154 43219
QIANFAN-60              
1 62790U 25016F   25316.93211566  .00000101  00000+0  13747-3 0  9994
2 62790  88.9734 106.1583 0017283  72.3860 287.9177 13.50974822 43207
QIANFAN-61              
1 62791U 25016G   25316.96482892  .00000048  00000+0  55968-4 0  9992
2 62791  88.9800 106.2974 0016205  71.8314 288.4600 13.50971998 43228
QIANFAN-62              
1 62792U 25016H   25316.96906477  .00000179  00000+0  25865-3 0  9990
2 62792  88.9747 106.1815 0017591  71.9374 288.3692 13.50982046 43213
QIANFAN-63              
1 62793U 25016J   25316.91966208  .00000173  00000+0  24957-3 0  9999
2 62793  88.9754 106.1361 0017705  76.9604 283.3523 13.50975143 43247
QIANFAN-64              
1 62794U 25016K   25316.96075659  .00000177  00000+0  25515-3 0  9991
2 62794  88.9740 106.1100 0015562  70.7419 289.5414 13.50977005 43245
